ANIK F2                 
1 28378U 04027A   24364.54817612 -.00000024  00000+0  00000+0 0  9999
2 28378   1.9021  86.6305 0000811 306.1421 151.9204  1.00271785 35908
AMC-15                  
1 28446U 04041A   24364.28368177 -.00000061  00000+0  00000+0 0  9990
2 28446   0.0154  10.3326 0002100 257.2905 187.6888  1.00270994 73956
NSS-10                  
1 28526U 05003A   24364.50604859 -.00000229  00000+0  00000+0 0  9999
2 28526   5.1080  76.9025 0002718 203.4770 322.7965  1.00270910 47790
XTAR-EUR                
1 28542U 05005A   24363.87799173  .00000176  00000+0  00000+0 0  9992
2 28542   2.9514  83.4067 0006224 205.6480 153.8411  1.00269849 72822
XM-3 (RHYTHM)           
1 28626U 05008A   24364.08497771 -.00000176  00000+0  00000+0 0  9992
2 28626   0.0154  24.3314 0003817 205.9428 173.1836  1.00266352 37253
INMARSAT 4-F1           
1 28628U 05009A   24363.42265506  .00000057  00000+0  00000+0 0  9998
2 28628   4.4905  41.7712 0002332 252.5511 133.2788  1.00271247 72301
DIRECTV 8               
1 28659U 05019A   24364.29262220  .00000029  00000+0  00000+0 0  9998
2 28659   0.0212  64.6506 0002800 221.8151 158.0668  1.00271308 71716
GALAXY 28 (G-28)        
1 28702U 05022A   24364.44144860 -.00000160  00000+0  00000+0 0  9994
2 28702   1.9175  85.6233 0006976 192.6088 250.0463  1.00270952 46627
THAICOM 4               
1 28786U 05028A   24364.14632622 -.00000335  00000+0  00000+0 0  9991
2 28786   0.0167 356.2872 0002124 272.9989   0.9723  1.00274196 46882
GALAXY 14 (G-14)        
1 28790U 05030A   24364.38654010 -.00000172  00000+0  00000+0 0  9999
2 28790   3.6407  81.4442 0000889 198.9821 311.2405  0.98946258 70930
ANIK F1R                
1 28868U 05036A   24364.40049443 -.00000050  00000+0  00000+0 0  9997
2 28868   2.9371  83.2610 0001144 214.8575 197.1193  1.00271753 41099
SYRACUSE 3A             
1 28885U 05041B   24364.32059775  .00000154  00000+0  00000+0 0  9996
2 28885   3.2755  82.5236 0002778 201.5673 311.3615  1.00273323 70388
INMARSAT 4-F2           
1 28899U 05044A   24363.55871001 -.00000237  00000+0  00000+0 0  9995
2 28899   4.4112  43.0923 0002890 241.3236 157.7158  1.00271115 70156
SPACEWAY 2              
1 28903U 05046B   24364.40087539  .00000104  00000+0  00000+0 0  9995
2 28903   4.0971  77.9053 0002089  72.9963 158.1519  0.99059568 45977
EUTELSAT 174A           
1 28924U 05052A   24364.60561286  .00000033  00000+0  00000+0 0  9994
2 28924   2.8591  83.1660 0006045 197.3979 209.9560  1.00271401 46979
ECHOSTAR 10             
1 28935U 06003A   24364.45118828 -.00000028  00000+0  00000+0 0  9991
2 28935   0.0131 345.8326 0002158 247.8262 276.9726  1.00271376 69104
SPAINSAT                
1 28945U 06007A   24363.81159036 -.00000187  00000+0  00000+0 0  9997
2 28945   0.0208 268.9253 0004903 353.3647  97.6612  1.00270913 68853
EUTELSAT HOTBIRD 13E    
1 28946U 06007B   24364.45595766 -.00000100  00000+0  00000+0 0  9998
2 28946   0.7170  94.1507 0000472 160.2911 352.0993  1.00270756 68963
JCSAT-5A                
1 29045U 06010A   24364.57205740 -.00000301  00000+0  00000+0 0  9999
2 29045   0.0191 334.6388 0001614 314.7472 147.1239  1.00270363 68405
ASTRA 1KR               
1 29055U 06012A   24364.24857378  .00000147  00000+0  00000+0 0  9993
2 29055   0.0113   5.1580 0005068 261.6724 300.0551  1.00270697 40352
EWS-G1 (GOES 13)        
1 29155U 06018A   24364.31712253 -.00000131  00000+0  00000+0 0  9994
2 29155   3.1362  82.9597 0064822 257.9985 236.5724  0.98833115 37968
GALAXY 16 (G-16)        
1 29236U 06023A   24364.29661872 -.00000099  00000+0  00000+0 0  9990
2 29236   0.0094  66.3652 0002541 224.6095 175.0360  1.00271200 67610
EUTELSAT HOTBIRD 13B    
1 29270U 06032A   24364.55188505  .00000182  00000+0  00000+0 0  9996
2 29270   0.2770  86.2319 0003768 208.8128  35.1913  1.00271436 41944
JCSAT-3A                
1 29272U 06033A   24364.59910281 -.00000318  00000+0  00000+0 0  9999
2 29272   0.0196 304.4465 0001513 339.3457 158.4299  1.00270526 42388
SYRACUSE 3B             
1 29273U 06033B   24364.31686191  .00000047  00000+0  00000+0 0  9998
2 29273   1.5248  86.9728 0005158 195.7293 292.9488  1.00270809 67316
KOREASAT 5 (MUGUNGWHA 5)
1 29349U 06034A   24364.48158743 -.00000332  00000+0  00000+0 0  9996
2 29349   0.3967  91.5073 0001700 234.9972  58.3505  1.00271880 35958
DIRECTV 9S              
1 29494U 06043A   24364.43910282 -.00000087  00000+0  00000+0 0  9993
2 29494   1.0361  87.4704 0002876 198.0933 229.6833  1.00271216 46022
OPTUS D1                
1 29495U 06043B   24364.59508716 -.00000158  00000+0  00000+0 0  9995
2 29495   1.6512  86.3891 0003613 195.8429 182.5424  1.00272013 66769
BADR-4                  
1 29526U 06051A   24364.48174281  .00000172  00000+0  00000+0 0  9998
2 29526   0.6206  85.8823 0008327 215.0126 357.1859  1.00273233 45908
WILDBLUE-1              
1 29643U 06054A   24364.43710458 -.00000023  00000+0  00000+0 0  9994
2 29643   1.4180  87.5421 0001601 190.9397 226.0686  1.00271023 48438
SKYNET 5A               
1 30794U 07007B   24364.62271619 -.00000248  00000+0  00000+0 0  9993
2 30794   3.9346  80.2131 0004525 207.8078 129.8996  1.00270110 65336
ANIK F3                 
1 31102U 07009A   24364.58000802  .00000026  00000+0  00000+0 0  9991
2 31102   0.0124  53.8965 0001881 240.1189 254.6204  1.00272671 41201
ASTRA 1L                
1 31306U 07016A   24364.24857378  .00000147  00000+0  00000+0 0  9990
2 31306   0.0448   0.9016 0006115 289.5540 276.4201  1.00270546 39620
GALAXY 17 (G-17)        
1 31307U 07016B   24364.15639351 -.00000179  00000+0  00000+0 0  9996
2 31307   1.6118  86.8060 0007104 209.3097 133.2760  1.00269221 64435
ZHONGXING-6B            
1 31800U 07031A   24364.58727108 -.00000336  00000+0  00000+0 0  9991
2 31800   1.0158  88.3926 0004151 198.4551 138.3651  1.00274461 64067
DIRECTV 10              
1 31862U 07032A   24364.25743848 -.00000075  00000+0  00000+0 0  9993
2 31862   0.0066  65.2623 0000486 282.9346  99.9005  1.00269911 40229
BSAT-3A                 
1 32019U 07036B   24364.58009455 -.00000323  00000+0  00000+0 0  9993
2 32019   0.0535 200.6303 0003676  54.6999 161.8620  1.00270992 45168
OPTUS D2                
1 32252U 07044A   24364.59201003 -.00000083  00000+0  00000+0 0  9998
2 32252   0.6875  89.0036 0006882 190.6493 192.1334  1.00271625 63088
INTELSAT 11 (IS-11)     
1 32253U 07044B   24364.45065794 -.00000243  00000+0  00000+0 0  9997
2 32253   2.1702  85.3417 0004057 208.3094 283.9684  1.00271629 63130
WGS F1 (USA 195)        
1 32258U 07046A   24364.35806870 -.00000240  00000+0  00000+0 0  9998
2 32258   0.0894  88.7862 0000286   1.7238  94.2094  1.00262563 46978
SKYNET 5B               
1 32294U 07056B   24364.46412443  .00000164  00000+0  00000+0 0  9994
2 32294   3.8866  79.8799 0004238 201.4614   9.1976  1.00272065 62831
ASTRA 4A                
1 32299U 07057A   24364.38862524  .00000060  00000+0  00000+0 0  9995
2 32299   0.0126   0.6291 0002578 271.2309 331.1772  1.00270957 46285
HORIZONS-2              
1 32388U 07063B   24364.44448942 -.00000227  00000+0  00000+0 0  9998
2 32388   1.2179  87.3357 0001762 199.4868 257.7782  1.00269717 62458
THURAYA-3               
1 32404U 08001A   24364.60862564 -.00000280  00000+0  00000+0 0  9997
2 32404   5.1279  33.8656 0002314 251.2184 131.0697  1.00271329 62137
THOR 5                  
1 32487U 08006A   24364.48938289  .00000018  00000+0  00000+0 0  9995
2 32487   0.0308 266.1135 0002162  16.6537 351.0839  1.00271184 61954
AMC-14                  
1 32708U 08011A   24364.24831314  .00000081  00000+0  00000+0 0  9992
2 32708  23.3428  26.9564 0039715 350.2403 187.8539  1.00274082 62809
DIRECTV 11              
1 32729U 08013A   24364.29653184 -.00000097  00000+0  00000+0 0  9997
2 32729   0.0199 189.3224 0000130 128.7444 147.7359  1.00268550 40239
ICO G1                  
1 32763U 08016A   24364.53382583 -.00000150  00000+0  00000+0 0  9997
2 32763   5.2069  36.2398 0002355 248.3339 273.2252  1.00272129 61186
VINASAT-1               
1 32767U 08018A   24364.20049453 -.00000301  00000+0  00000+0 0  9991
2 32767   0.0153 332.1227 0001724 325.3435   4.7998  1.00271207 61223
STAR ONE C2             
1 32768U 08018B   24364.23590953 -.00000249  00000+0  00000+0 0  9992
2 32768   0.0252   2.9515 0002478 276.2279 198.9140  1.00274548 61296
AMOS-3                  
1 32794U 08022A   24364.31538492 -.00000008  00000+0  00000+0 0  9998
2 32794   0.0318  98.4136 0002560 165.0391 304.2260  1.00271869 76978
GALAXY 18 (G-18)        
1 32951U 08024A   24364.52132870  .00000053  00000+0  00000+0 0  9997
2 32951   0.0271  26.4546 0002777 256.6547 240.0142  1.00270937 40496
ZHONGXING-9             
1 33051U 08028A   24364.47750403 -.00000220  00000+0  00000+0 0  9992
2 33051   0.0200  87.7907 0004324 213.0945  61.6342  1.00270848 60672
SKYNET 5C               
1 33055U 08030A   24364.45561014 -.00000115  00000+0  00000+0 0  9998
2 33055   2.4119  83.3021 0004786 206.2602 315.0426  1.00272262 60598
TURKSAT 3A              
1 33056U 08030B   24364.25309156  .00000174  00000+0  00000+0 0  9998
2 33056   0.0481  99.2293 0002587 170.1033 321.9764  1.00269051 46997
INTELSAT 25 (IS-25)     
1 33153U 08034A   24364.50049442 -.00000198  00000+0  00000+0 0  9994
2 33153   1.3249  87.0047 0002950 200.4735 319.6462  1.00271431 60331
BADR-6                  
1 33154U 08034B   24364.58364848 -.00000229  00000+0  00000+0 0  9998
2 33154   1.4672  85.3450 0005081 302.8248  72.5728  0.98747833 60392
ECHOSTAR 11             
1 33207U 08035A   24364.25743848 -.00000029  00000+0  00000+0 0  9991
2 33207   0.0270 293.0179 0002135 346.5679 161.3028  1.00271163 45852
SUPERBIRD-C2            
1 33274U 08038A   24364.58884635 -.00000225  00000+0  00000+0 0  9992
2 33274   0.9778  88.2480 0001606 205.6652 160.5403  1.00271397100371
